{
	"redzone": [
			{
			"ID":1,
			"PlaceName": "Gandhi Park",
			"Lat": 28.529381,
			"Lon": 77.214061,
			"Desc": "No desec",
			"Radius": 200
			},
			{
			"ID":2,
			"PlaceName": "Gali No 6, Delhi",
			"Lat": 28.499163,
			"Lon": 77.236141,
			"Desc": "No desec",
			"Radius": 200
			},
			{
			"ID":3,
			"PlaceName": "Markaz Masjid",
			"Lat": 28.553193,
			"Lon": 78.562458,
			"Desc": "No desec",
			"Radius": 200
			},
			{

			"ID":4,
            "PlaceName": "Nizampur",
            "Lat": 22.9756445 ,
            "Lon": 87.8996852,
            "Desc": "No desec",
            "Radius": 200
			},
			{
			"ID":5,
			"PlaceName": "Panskura Bus Stand",
			"Lat": 22.3940942,
			"Lon": 87.4593378,
			"Desc": "No desec",
			"Radius": 200
			},
			{
			"ID":6,
			"PlaceName": "Ward No 26 Kharagpur Municipality",
			"Lat": 22.328841, 
			"Lon": 87.327066,
			"Desc": "No desec",
			"Radius": 200
			},
			{
			"ID":7,
			"PlaceName": "Midnapore Station Parah",
			"Lat": 22.425260, 
			"Lon": 87.307927,
			"Desc": "No desec",
			"Radius": 200
			},
			{
			"ID":8,
			"PlaceName": "Kulerdari",
			"Lat": 22.4311646,
			"Lon": 88.3223785,
			"Desc": "No desec",
			"Radius": 200
			},
			{
			"ID":9,
			"PlaceName": "Parbatipur FP School Area",
			"Lat": 25.2733708,
			"Lon": 88.7565696,
			"Desc": "No desec",
			"Radius": 200
			},
			{
			"ID":10,
			"PlaceName": "Chingripota",
			"Lat": 22.4852724,
			"Lon": 88.2229378,
			"Desc": "No desec",
			"Radius": 200
			},
			{
			"ID":11,
			"PlaceName": "Chatta",
			"Lat": 22.4724073,
			"Lon": 88.2256297,
			"Desc": "No desec",
			"Radius": 200
			},
			{
			"ID":12,
			"PlaceName": "Dakhinee Housing Estate",
			"Lat": 22.5334129,
			"Lon": 88.2469691,
			"Desc": "No desec",
			"Radius": 200
			},
			{
			"ID":13,
			"PlaceName": "New Santoshpur Road",
			"Lat": 22.5250352,
			"Lon": 88.2701668,
			"Desc": "No desec",
			"Radius": 200
			},
			{
			"ID":14,
			"PlaceName": "Dakghar,Jalkura",
			"Lat": 22.5051645,
			"Lon": 88.246142,
			"Desc": "No desec",
			"Radius": 200
			} ,
			{
			"ID":15,
			"PlaceName": "Kalikapur",
			"Lat": 22.500627,
			"Lon": 88.3922466,
			"Desc": "No desec",
			"Radius": 200
			},
			{
			"ID":16,
			"PlaceName": "Jadav Sarkar Road",
			"Lat": 22.4351954,
			"Lon": 88.4227936,
			"Desc": "No desec",
			"Radius": 200
			},
			{
			"ID":17,
			"PlaceName": "Gandhipara Road",
			"Lat": 26.3248187,
			"Lon": 89.76197,
			"Desc": "No desec",
			"Radius": 200
			},
			{
			"ID":18,
			"PlaceName": "Pratapgarh Colony",
			"Lat": 22.6768378,
			"Lon": 88.4142412,
			"Desc": "No desec",
			"Radius": 200
			},
			{
			"ID":19,
			"PlaceName": "Mukundapur",
			"Lat": 22.7242199,
			"Lon": 88.1806325,
			"Desc": "No desec",
			"Radius": 200
			},
			{
			"ID":20,
			"PlaceName": "Nainan",
			"Lat": 22.2753698,
			"Lon": 88.3430752,
			"Desc": "No desec",
			"Radius": 200
			},
			{
			"ID":21,
			"PlaceName": "Sarai Tinna",
			"Lat": 23.0888897,
			"Lon": 88.2573876,
			"Desc": "No desec",
			"Radius": 200
			},
			{
			"ID":22,
			"PlaceName": "Champdani Municipality",
			"Lat": 22.8000262,
			"Lon": 88.3470759,
			"Desc": "No desec",
			"Radius": 200
			},
			{
			"ID":23,
			"PlaceName": "Konnagar Municipality",
			"Lat": 22.7031241,
			"Lon": 88.3561777,
			"Desc": "No desec",
			"Radius": 200
			},
			{
			"ID":24,
			"PlaceName": "Serampore Municipality",
			"Lat": 22.751128,
			"Lon": 88.3383657,
			"Desc": "No desec",
			"Radius": 200
			},
			{
			"ID":25,
			"PlaceName": "Dankuni Municipality",
			"Lat": 22.6816052,
			"Lon": 88.2926378,
			"Desc": "No desec",
			"Radius": 200
			},
			{
			"ID":26,
			"PlaceName": "Rishra Gram Panchayat",
			"Lat": 22.7175181,
			"Lon": 88.3191295,
			"Desc": "No desec",
			"Radius": 200
			},
			{
			"ID":27,
			"PlaceName": "Chandan Nagar Municipality",
			"Lat": 22.8763351,
			"Lon": 88.369811,
			"Desc": "No desec",
			"Radius": 200
			},
			{
			"ID":28,
			"PlaceName": "Kanaipur Gram Panchayat",
			"Lat": 22.7022784,
			"Lon": 88.3251233,
			"Desc": "No desec",
			"Radius": 200
			},
			{
			"ID":29,
			"PlaceName": "Barjhati Gram Panchayat",
			"Lat": 22.6871235,
			"Lon": 88.267422,
			"Desc": "No desec",
			"Radius": 200
			},
			{
			"ID":30,
			"PlaceName": "Rishra Municipality",
			"Lat": 22.7241476,
			"Lon": 88.342325,
			"Desc": "No desec",
			"Radius": 200
			},
			{
			"ID":31,
			"PlaceName": "Tirol Gram Panchayat",
			"Lat": 22.9253391,
			"Lon": 87.8093326,
			"Desc": "No desec",
			"Radius": 200
			},{
			"ID":32,
			"PlaceName": "Sultanganj",
			"Lat": 25.2421723,
			"Lon": 86.7262879,
			"Desc": "No desec",
			"Radius": 200
			},
			{
			"ID":33,
			"PlaceName": "Khajpura",
			"Lat": 24.9383124,
			"Lon": 85.6371517,
			"Desc": "No desec",
			"Radius": 200
			},
			{
			"ID":34,
			"PlaceName": "Mansapuri",
			"Lat": 26.4026692,
			"Lon": 86.4935487,
			"Desc": "No desec",
			"Radius": 200
			},
			{
			"ID":35,
			"PlaceName": "Adarsh Colony Road No. 5",
			"Lat": 25.6210933,
			"Lon": 85.0970449,
			"Desc": "No desec",
			"Radius": 200
			},
			{
			"ID":36,
			"PlaceName": "Panditji Gali",
			"Lat": 25.6457474, 
			"Lon": 85.0640676,
			"Desc": "No desec",
			"Radius": 200
			},
			{
			"ID":37,
			"PlaceName": "BPSC Office Slums",
			"Lat": 25.610875, 
			"Lon": 85.133794, 
			"Desc": "No desec",
			"Radius": 200
			},
			{
			"ID":38,
			"PlaceName": "Birla Colony",
			"Lat": 25.5808307,
			"Lon": 85.0651171,
			"Desc": "No desec",
			"Radius": 200
			},
			{
			"ID":39,
			"PlaceName": "Road 1E",
			"Lat": 25.638131,
			"Lon": 85.088232,
			"Desc": "No desec",
			"Radius": 200
			},
			{
			"ID":40,
			"PlaceName": "Meethakuan Road",
			"Lat": 25.590047, 
			"Lon": 85.069173,
			"Desc": "No desec",
			"Radius": 200
			},
			{
			"ID":41,
			"PlaceName": "Naubatpur Village",
			"Lat": 25.5013231,
			"Lon": 84.9581548,
			"Desc": "No desec",
			"Radius": 200
			},
			{
			"ID":42,
			"PlaceName": "Paliganj",
			"Lat": 25.3278897,
			"Lon": 84.7935104,
			"Desc": "No desec",
			"Radius": 200
			},
			{
			"ID":43,
            "PlaceName": "Ashok Tower",
            "Lat": 25.6080472,
            "Lon": 85.0849994,
            "Desc": "No desec",
            "Radius": 200
			},
			{
			"ID":44,
			"PlaceName": "Churchgate",
			"Lat": 18.9355365,
			"Lon": 72.8173892,
			"Desc": "No desec",
			"Radius": 200
			},
			{
			"ID":45,
			"PlaceName": "Colaba",
			"Lat": 18.9095245,
			"Lon": 72.801681,
			"Desc": "No desec",
			"Radius": 200
			},
			{
			"ID":46,
			"PlaceName": "Musjid Bandar",
			"Lat": 18.9510004,
			"Lon": 72.8335021,
			"Desc": "No desec",
			"Radius": 200
			},
			{
			"ID":47,
            "PlaceName": "Mohammed Ali Road",
            "Lat": 18.9566733,
            "Lon": 72.8305737,
            "Desc": "No desec",
            "Radius": 200
			},
			{
			"ID":48,
			"PlaceName": "Dongri",
			"Lat": 18.9598529,
			"Lon": 72.8335356,
			"Desc": "No desec",
			"Radius": 200
			},
			{
			"ID":49,
			"PlaceName": "Bhendi Bazaar",
			"Lat": 18.9563871,
			"Lon": 72.8290585,
			"Desc": "No desec",
			"Radius": 200
			},
			{
			"ID":50,
			"PlaceName": "Pydhonie",
			"Lat": 18.9541154,
			"Lon": 72.8330828,
			"Desc": "No desec",
			"Radius": 200
			},
			{
			"ID":51,
			"PlaceName": "Bhuleshwar",
			"Lat": 18.9549234,
			"Lon": 72.8252296,
			"Desc": "No desec",
			"Radius": 200
			},
			{
			"ID":52,
			"PlaceName": "Grant Road",
			"Lat": 18.9627716,
			"Lon": 72.8096433,
			"Desc": "No desec",
			"Radius": 200
			},
			{
			"ID":53,
			"PlaceName": "Walkeshwar, Malabar Hills",
			"Lat": 18.9515713,
			"Lon": 72.8004873,
			"Desc": "No desec",
			"Radius": 200
			},
			{
			"ID":54,
			"PlaceName": "Breach Candy",
			"Lat": 18.9716329,
			"Lon": 72.8019886,
			"Desc": "No desec",
			"Radius": 200
			},
			{
			"ID":55,
			"PlaceName": "Haji Ali",
			"Lat": 18.9783765,
			"Lon": 72.8076142,
			"Desc": "No desec",
			"Radius": 200
			},
			{
			"ID":56,
			"PlaceName": "Byculla",
			"Lat": 18.9770717,
			"Lon": 72.8249743,
			"Desc": "No desec",
			"Radius": 200
			},
			{
			"ID":57,
			"PlaceName": "Madanpura",
			"Lat": 18.9700517,
			"Lon": 72.8240481,
			"Desc": "No desec",
			"Radius": 200
			},
			{
			"ID":58,
			"PlaceName": "Agripada",
			"Lat": 18.9760659,
			"Lon": 72.822088,
			"Desc": "No desec",
			"Radius": 200
			},
			{
			"ID":59,
			"PlaceName": "Nagpada",
			"Lat": 18.9645084,
			"Lon": 72.8278552,
			"Desc": "No desec",
			"Radius": 200
			},
			{
			"ID":60,
			"PlaceName": "Dockyard Road",
			"Lat": 18.9674478,
			"Lon": 72.8423728,
			"Desc": "No desec",
			"Radius": 200
			},
			{
			"ID":61,
			"PlaceName": "Reay Road",
			"Lat": 18.9774518,
			"Lon": 72.8419706,
			"Desc": "No desec",
			"Radius": 200
			},
			{
			"ID":62,
			"PlaceName": "Chinchpokli",
			"Lat": 18.9828378,
			"Lon": 72.8299296,
			"Desc": "No desec",
			"Radius": 200
			},
			{
			"ID":63,
			"PlaceName": "Matunga",
			"Lat": 19.029268,
			"Lon": 72.8451586,
			"Desc": "No desec",
			"Radius": 200
			},
			{
			"ID":64,
			"PlaceName": "Sion",
			"Lat": 19.0425889,
			"Lon": 72.850797,
			"Desc": "No desec",
			"Radius": 200
			},
			{
			"ID":65,
			"PlaceName": "Wadala",
			"Lat": 19.0139242,
			"Lon": 72.8436694,
			"Desc": "No desec",
			"Radius": 200
			},
			{
			"ID":66,
			"PlaceName": "Hindu Colony, Dadar",
			"Lat": 19.0204389,
			"Lon": 72.8438099,
			"Desc": "No desec",
			"Radius": 200
			},
			{
			"ID":67,
			"PlaceName": "Parel",
			"Lat": 18.9982462,
			"Lon": 72.832826,
			"Desc": "No desec",
			"Radius": 200
			},
			{
			"ID":68,
			"PlaceName": "Dharavi",
			"Lat": 19.0467544,
			"Lon": 72.8398769,
			"Desc": "No desec",
			"Radius": 200
			},
			{
			"ID":69,
			"PlaceName": "Mahim",
			"Lat": 19.0401163,
			"Lon": 72.8332402,
			"Desc": "No desec",
			"Radius": 200
			},
			{
			"ID":70,
			"PlaceName": "Dadar",
			"Lat": 19.0214606,
			"Lon": 72.8254507,
			"Desc": "No desec",
			"Radius": 200
			},
			{
			"ID":71,
			"PlaceName": "Worli",
			"Lat": 19.0039292,
			"Lon": 72.8037904,
			"Desc": "No desec",
			"Radius": 200
			},
			{
			"ID":72,
			"PlaceName": "Prabhadevi",
			"Lat": 19.0152491,
			"Lon": 72.8196879,
			"Desc": "No desec",
			"Radius": 200
			},
			{
			"ID":73,
			"PlaceName": "Bandra East",
			"Lat": 19.0611642,
			"Lon": 72.8389848,
			"Desc": "No desec",
			"Radius": 200
			},
			{
			"ID":74,
			"PlaceName": "Khar East",
			"Lat": 19.0712479,
			"Lon": 72.8389464,
			"Desc": "No desec",
			"Radius": 200
			},
			{
			"ID":75,
			"PlaceName": "Santacruz East",
			"Lat": 19.0779306,
			"Lon": 72.8410103,
			"Desc": "No desec",
			"Radius": 200
			},
			{
			"ID":76,
			"PlaceName": "Bandra West",
			"Lat": 19.0544782,
			"Lon": 72.8121447,
			"Desc": "No desec",
			"Radius": 200
			},
			{
			"ID":77,
			"PlaceName": "Khar West",
			"Lat": 19.0687793,
			"Lon": 72.8230148,
			"Desc": "No desec",
			"Radius": 200
			},
			{
			"ID":78,
			"PlaceName": "Santacruz West",
			"Lat": 19.0818115,
			"Lon": 72.8264993,
			"Desc": "No desec",
			"Radius": 200
			},
			{
			"ID":79,
			"PlaceName": "Andheri East",
			"Lat": 19.1147385,
			"Lon": 72.8334709,
			"Desc": "No desec",
			"Radius": 200
			},
			{
			"ID":80,
			"PlaceName": "Jogeshwari East",
			"Lat": 19.1331001,
			"Lon": 72.8434359,
			"Desc": "No desec",
			"Radius": 200
			},
			{
			"ID":81,
			"PlaceName": "Vile Parle East",
			"Lat": 19.0974241,
			"Lon": 72.8445433,
			"Desc": "No desec",
			"Radius": 200
			},
			{
			"ID":82,
			"PlaceName": "Andheri West",
			"Lat": 19.1386617,
			"Lon": 72.7903874,
			"Desc": "No desec",
			"Radius": 200
			},
			{
			"ID":83,
			"PlaceName": "Jogeshwari West",
			"Lat": 19.1416503,
			"Lon": 72.8319697,
			"Desc": "No desec",
			"Radius": 200
			},
			{
			"ID":84,
			"PlaceName": "Vile Parle West",
			"Lat": 19.1053384,
			"Lon": 72.8188572,
			"Desc": "No desec",
			"Radius": 200
			},
			{
			"ID":85,
			"PlaceName": "Sakinaka",
			"Lat": 19.0996368,
			"Lon": 72.8769037,
			"Desc": "No desec",
			"Radius": 200
			},
			{
			"ID":86,
			"PlaceName": "Chandivali",
			"Lat": 19.1130674,
			"Lon": 72.8843372,
			"Desc": "No desec",
			"Radius": 200
			},
			{
			"ID":87,
			"PlaceName": "Asalpha",
			"Lat": 19.0985059,
			"Lon": 72.8850437,
			"Desc": "No desec",
			"Radius": 200
			},
			{
			"ID":88,
			"PlaceName": "Kurla",
			"Lat": 19.07155,
			"Lon": 72.8664114,
			"Desc": "No desec",
			"Radius": 200
			},
			{
			"ID":89,
			"PlaceName": "Mankhurd",
			"Lat": 19.0494355,
			"Lon": 72.9177162,
			"Desc": "No desec",
			"Radius": 200
			},
			{
			"ID":90,
			"PlaceName": "Anushakti Nagar",
			"Lat": 19.0354758,
			"Lon": 72.9113136,
			"Desc": "No desec",
			"Radius": 200
			},
			{
			"ID":91,
			"PlaceName": "Deonar",
			"Lat": 19.0444297,
			"Lon": 72.9078458,
			"Desc": "No desec",
			"Radius": 200
			},
			{
			"ID":92,
			"PlaceName": "Cheetah Camp",
			"Lat": 19.0358801,
			"Lon": 72.9458199,
			"Desc": "No desec",
			"Radius": 200
			},
			{
			"ID":93,
			"PlaceName": "Shivaji Nagar",
			"Lat": 19.0654129,
			"Lon": 72.9144323,
			"Desc": "No desec",
			"Radius": 200
			},
			{
			"ID":94,
			"PlaceName": "Chembur",
			"Lat": 19.0471053,
			"Lon": 72.8661988,
			"Desc": "No desec",
			"Radius": 200
			},
			{
			"ID":95,
			"PlaceName": "Chedda Nagar",
			"Lat": 19.0640163,
			"Lon": 72.8987367,
			"Desc": "No desec",
			"Radius": 200
			},
			{
			"ID":96,
			"PlaceName": "Ghatkopar",
			"Lat": 19.0790227,
			"Lon": 72.8905026,
			"Desc": "No desec",
			"Radius": 200
			},
			{
			"ID":97,
			"PlaceName": "Vidyavihar",
			"Lat": 19.0790947,
			"Lon": 72.8881353,
			"Desc": "No desec",
			"Radius": 200
			},
			{
			"ID":98,
			"PlaceName": "Malad",
			"Lat": 19.1887532,
			"Lon": 72.7722645,
			"Desc": "No desec",
			"Radius": 200
			},
			{
			"ID":99,
			"PlaceName": "Manori",
			"Lat": 19.2078702,
			"Lon": 72.7779349,
			"Desc": "No desec",
			"Radius": 200
			},
			{
			"ID":100,
			"PlaceName": "Marve",
			"Lat": 19.1917411,
			"Lon": 72.7898627,
			"Desc": "No desec",
			"Radius": 200
			},
			{
			"ID":101,
			"PlaceName": "Aksa Gaon",
			"Lat": 19.1771808,
			"Lon": 72.7919147,
			"Desc": "No desec",
			"Radius": 200
			},
			{
			"ID":102,
			"PlaceName": "Goregaon",
			"Lat": 19.1527071,
			"Lon": 72.8436784,
			"Desc": "No desec",
			"Radius": 200
			},
			{
			"ID":103,
			"PlaceName": "Borivali",
			"Lat": 19.2317711,
			"Lon": 72.8106844,
			"Desc": "No desec",
			"Radius": 200
			},
			{
			"ID":104,
			"PlaceName": "Dahisar",
			"Lat": 19.4930592,
			"Lon": 72.8462804,
			"Desc": "No desec",
			"Radius": 200
			},
			{
			"ID":105,
			"PlaceName": "Kandivali",
			"Lat": 19.205877,
			"Lon": 72.8477623,
			"Desc": "No desec",
			"Radius": 200
			},
			{
			"ID":106,
			"PlaceName": "Bhandup",
			"Lat": 19.1508121,
			"Lon": 72.925135,
			"Desc": "No desec",
			"Radius": 200
			},
			{
			"ID":107,
			"PlaceName": "Powai",
			"Lat": 19.1250474,
			"Lon": 72.8875394,
			"Desc": "No desec",
			"Radius": 200
			},
			{
			"ID":108,
			"PlaceName": "Kanjur Marg",
			"Lat": 19.1283375,
			"Lon": 72.9258755,
			"Desc": "No desec",
			"Radius": 200
			},
			{
			"ID":109,
			"PlaceName": "Vikhroli",
			"Lat": 19.0895592,
			"Lon": 72.9042311,
			"Desc": "No desec",
			"Radius": 200
			},
			{
			"ID":110,
			"PlaceName": "Nahur",
			"Lat": 19.1562329,
			"Lon": 72.9389728,
			"Desc": "No desec",
			"Radius": 200
			},
			{
			"ID":111,
			"PlaceName": "Mulund",
			"Lat": 19.1720208,
			"Lon": 72.954162,
			"Desc": "No desec",
			"Radius": 200
			},
			{
			"ID":112,
			"PlaceName": "Mangalvar Peth, Juna Bazaar",
			"Lat": 18.5250194,
			"Lon": 73.8594087,
			"Desc": "No desec",
			"Radius": 200
			},
			{
			"ID":113,
			"PlaceName": "Parvati Darshan",
			"Lat": 18.4872002,
			"Lon": 73.8279708,
			"Desc": "No desec",
			"Radius": 200
			},
			{
			"ID":114,
			"PlaceName": "Kasba Peth",
			"Lat": 18.523609,
			"Lon": 73.8522882,
			"Desc": "No desec",
			"Radius": 200
			},
			{
			"ID":115,
			"PlaceName": "Pune Station",
			"Lat": 18.5285053,
			"Lon": 73.8722235,
			"Desc": "No desec",
			"Radius": 200
			},
			{
			"ID":116,
			"PlaceName": "Shiv Darshan",
			"Lat": 18.496328,
			"Lon": 73.8616559,
			"Desc": "No desec",
			"Radius": 200
			},
			{
			"ID":117,
			"PlaceName": "Gajanan Maharaj Temple Area",
			"Lat": 18.5228926,
			"Lon": 73.8443041,
			"Desc": "No desec",
			"Radius": 200
			},
			{
			"ID":118,
			"PlaceName": "Katraj",
			"Lat": 18.4442447,
			"Lon": 73.8451703,
			"Desc": "No desec",
			"Radius": 200
			},
			{
			"ID":119,
			"PlaceName": "Ambegaon Pathar",
			"Lat": 18.4584485,
			"Lon": 73.8375377,
			"Desc": "No desec",
			"Radius": 200
			},
			{
			"ID":120,
			"PlaceName": "Ambedkar Nagar",
			"Lat": 18.4837876,
			"Lon": 73.8640088,
			"Desc": "No desec",
			"Radius": 200
			},
			{
			"ID":121,
			"PlaceName": "Dias Plot",
			"Lat": 18.495955,
			"Lon": 73.8670253,
			"Desc": "No desec",
			"Radius": 200
			},
			{
			"ID":122,
			"PlaceName": "Meenatai Thakre Nagar",
			"Lat": 18.4965738,
			"Lon": 73.8214842,
			"Desc": "No desec",
			"Radius": 200
			},
			{
			"ID":123,
			"PlaceName": "Bibwewadi",
			"Lat": 18.4709061,
			"Lon": 73.8582237,
			"Desc": "No desec",
			"Radius": 200
			},
			{
			"ID":124,
			"PlaceName": "Panorama Society",
			"Lat": 18.6207528,
			"Lon": 73.87565,
			"Desc": "No desec",
			"Radius": 200
			},
			{
			"ID":125,
			"PlaceName": "Nagpur Chaul, Yerawada",
			"Lat": 18.5625044,
			"Lon": 73.8919544,
			"Desc": "No desec",
			"Radius": 200
			},
			{
			"ID":126,
			"PlaceName": "Yerawada",
			"Lat": 18.5595112,
			"Lon": 73.8650323,
			"Desc": "No desec",
			"Radius": 200
			},
			{
			"ID":127,
			"PlaceName": "Chaudhury Nagar",
			"Lat": 18.587856,
			"Lon": 73.8948613,
			"Desc": "No desec",
			"Radius": 200
			},
			{
			"ID":128,
			"PlaceName": "Hadapsar",
			"Lat": 18.4972508,
			"Lon": 73.9043993,
			"Desc": "No desec",
			"Radius": 200
			},
			{
			"ID":129,
			"PlaceName": "Kondhuwa Khurd",
			"Lat": 18.4677727,
			"Lon": 73.8760297,
			"Desc": "No desec",
			"Radius": 200
			},
			{
			"ID":130,
			"PlaceName": "Wanwadi",
			"Lat": 18.4929714,
			"Lon": 73.8918128,
			"Desc": "No desec",
			"Radius": 200
			},
			{
			"ID":131,
			"PlaceName": "Shivaji Nagar",
			"Lat": 18.5329442,
			"Lon": 73.8247899,
			"Desc": "No desec",
			"Radius": 200
			},
			{
			"ID":132,
			"PlaceName": "Wadgaon Sheri",
			"Lat": 18.5500037,
			"Lon": 73.9028834,
			"Desc": "No desec",
			"Radius": 200
			},
			{
			"ID":133,
			"PlaceName": "Dhayari",
			"Lat": 18.4439642,
			"Lon": 73.7918724,
			"Desc": "No desec",
			"Radius": 200
			},
			{
			"ID":134,
			"PlaceName": "Fursungi",
			"Lat": 18.4702569,
			"Lon": 73.9671022,
			"Desc": "No desec",
			"Radius": 200
			},
			{
			"ID":135,
			"PlaceName": "Kodhwa",
			"Lat": 18.4677727,
			"Lon": 73.8760297,
			"Desc": "No desec",
			"Radius": 200
			},
			{
			"ID":136,
			"PlaceName": "Dhankawadi",
			"Lat": 18.4644266,
			"Lon": 73.8344238,
			"Desc": "No desec",
			"Radius": 200
			},
			{
			"ID":137,
			"PlaceName": "Erandwane",
			"Lat": 18.5066563,
			"Lon": 73.8239077,
			"Desc": "No desec",
			"Radius": 200
			},
			{
			"ID":138,
			"PlaceName": "Kothrud",
			"Lat": 18.5073806,
			"Lon": 73.7871499,
			"Desc": "No desec",
			"Radius": 200
			},
			{
			"ID":139,
			"PlaceName": "Thane West",
			"Lat": 19.2378102,
			"Lon": 72.9309044,
			"Desc": "No desec",
			"Radius": 1000
			},
			{
			"ID":140,
			"PlaceName": "Brahman Society",
			"Lat": 19.1856618,
			"Lon": 72.9667148,
			"Desc": "No desec",
			"Radius": 200
			},
			{
			"ID":141,
			"PlaceName": "Diva",
			"Lat": 19.1855406,
			"Lon": 73.0207998,
			"Desc": "No desec",
			"Radius": 200
			},
			{
			"ID":142,
			"PlaceName": "Thane East",
			"Lat": 19.1771591,
			"Lon": 72.9667453,
			"Desc": "No desec",
			"Radius": 500
			},
			{
			"ID":143,
			"PlaceName": "Kalwa",
			"Lat": 19.2015462,
			"Lon": 72.9675914,
			"Desc": "No desec",
			"Radius": 200
			},
			{
			"ID":144,
			"PlaceName": "Katra Dullo",
			"Lat": 31.6223785,
			"Lon": 74.8672149,
			"Desc": "No desec",
			"Radius": 200
			},
			{
			"ID":145,
			"PlaceName": "Rani Ka Bagh",
			"Lat": 31.6388234,
			"Lon": 74.8550901,
			"Desc": "No desec",
			"Radius": 200
			},
			{
			"ID":146,
			"PlaceName": "Vijay Nagar",
			"Lat": 31.6451133,
			"Lon": 74.8910908,
			"Desc": "No desec",
			"Radius": 200
			},
			{
			"ID":147,
			"PlaceName": "Palm Garden",
			"Lat": 31.6761013,
			"Lon": 74.8920245,
			"Desc": "No desec",
			"Radius": 200
			},
			{
			"ID":148,
			"PlaceName": "Labour Colony",
			"Lat": 31.6324398,
			"Lon": 74.8139648,
			"Desc": "No desec",
			"Radius": 200
			},
			{
			"ID":149,
			"PlaceName": "Fateh Singh Colony",
			"Lat": 31.6051989,
			"Lon": 74.8469162,
			"Desc": "No desec",
			"Radius": 200
			},
			{
			"ID":150,
			"PlaceName": "Devi Wali Gali, Bhaktawala",
			"Lat": 31.613396,
			"Lon": 74.8704225,
			"Desc": "No desec",
			"Radius": 200
			},
			{
			"ID":151,
			"PlaceName": "Fatahpur",
			"Lat": 31.5974459,
			"Lon": 74.8340362,
			"Desc": "No desec",
			"Radius": 200
			},
			{
			"ID":152,
			"PlaceName": "Gopal Nagar",
			"Lat": 31.6495643,
			"Lon": 74.88547,
			"Desc": "No desec",
			"Radius": 200
			},
			{
			"ID":153,
			"PlaceName": "Ranjit Pura",
			"Lat": 31.6304005,
			"Lon": 74.7928604,
			"Desc": "No desec",
			"Radius": 200
			},
			{
			"ID":154,
			"PlaceName": "Ganda Singh Colony",
			"Lat": 31.599367,
			"Lon": 74.8817832,
			"Desc": "No desec",
			"Radius": 200
			},
			{
			"ID":155,
			"PlaceName": "Mallian Village",
			"Lat": 31.5610021,
			"Lon": 75.0491712,
			"Desc": "No desec",
			"Radius": 200
			},
			{
			"ID":156,
			"PlaceName": "Chananke",
			"Lat": 31.6872851,
			"Lon": 75.1952362,
			"Desc": "No desec",
			"Radius": 200
			},
			{
			"ID":157,
			"PlaceName": "Rose Avenue",
			"Lat": 31.64407,
			"Lon": 74.8665476,
			"Desc": "No desec",
			"Radius": 200
			},
			{
			"ID":158,
			"PlaceName": "Katra Bhagian",
			"Lat": 31.6273884,
			"Lon": 74.877642,
			"Desc": "No desec",
			"Radius": 200
			},
			{
			"ID":159,
			"PlaceName": "Mehta Chowk",
			"Lat": 31.6776024,
			"Lon": 75.2465087,
			"Desc": "No desec",
			"Radius": 200
			},
			{
			"ID":160,
			"PlaceName": "Faizpura",
			"Lat": 31.6555033,
			"Lon": 74.869733,
			"Desc": "No desec",
			"Radius": 200
			},
			{
			"ID":161,
			"PlaceName": "Housing Board Colony",
			"Lat": 31.6632944,
			"Lon": 74.8653881,
			"Desc": "No desec",
			"Radius": 200
			},
			{
			"ID":162,
			"PlaceName": "Habib Ganj",
			"Lat": 30.9011279,
			"Lon": 75.8563614,
			"Desc": "No desec",
			"Radius": 200
			},
			{
			"ID":163,
			"PlaceName": "Prem Nagar",
			"Lat": 30.9027664,
			"Lon": 75.8547322,
			"Desc": "No desec",
			"Radius": 200
			},
			{
			"ID":164,
			"PlaceName": "Sirhindi Gate",
			"Lat": 30.5245989,
			"Lon": 76.4560316,
			"Desc": "No desec",
			"Radius": 200
			},
			{
			"ID":165,
			"PlaceName": "Uchi Gali",
			"Lat": 30.9195084,
			"Lon": 75.8533682,
			"Desc": "No desec",
			"Radius": 200
			},
			{
			"ID":166,
			"PlaceName": "Grewal Chowk",
			"Lat": 30.5245187,
			"Lon": 75.8739315,
			"Desc": "No desec",
			"Radius": 200
			},
			{
			"ID":167,
			"PlaceName": "Uttam Factory",
			"Lat": 30.7505066,
			"Lon": 74.4987904,
			"Desc": "No desec",
			"Radius": 200
			},
			{
			"ID":168,
			"PlaceName": "Defence Colony",
			"Lat": 30.5234218,
			"Lon": 75.8890577,
			"Desc": "No desec",
			"Radius": 200
			},
			{
			"ID":169,
			"PlaceName": "Bhumsi Street",
			"Lat": 30.5352054,
			"Lon": 75.870934,
			"Desc": "No desec",
			"Radius": 200
			},
			{
			"ID":170,
			"PlaceName": "Sector 52, Chandigarh",
			"Lat": 30.7120667,
			"Lon": 76.7289471,
			"Desc": "No desec",
			"Radius": 200
			},
			{
			"ID":171,
			"PlaceName": "Sector 38, Chandigarh",
			"Lat": 30.7461002,
			"Lon": 76.7346362,
			"Desc": "No desec",
			"Radius": 200
			},
			{
			"ID":172,
			"PlaceName": "Dhanas",
			"Lat": 30.7681277,
			"Lon": 76.7405546,
			"Desc": "No desec",
			"Radius": 200
			},
			{
			"ID":173,
			"PlaceName": "Manimajra",
			"Lat": 30.7162093,
			"Lon": 76.8185918,
			"Desc": "No desec",
			"Radius": 200
			},
			{
			"ID":174,
			"PlaceName": "Sector 30B, Chandigarh",
			"Lat": 30.7189988,
			"Lon": 76.790864,
			"Desc": "No desec",
			"Radius": 200
			},
			{
			"ID":175,
			"PlaceName": "Bapu Dham Colony",
			"Lat": 30.7186429,
			"Lon": 76.8132326,
			"Desc": "No desec",
			"Radius": 200
			},
			{
			"ID":176,
			"PlaceName": "Hauz Rani Road",
			"Lat": 28.529786, 
			"Lon": 77.213224,
			"Desc": "No desec",
			"Radius": 200
			},
			{
			"ID":177,
			"PlaceName": "Gali No 6, Sangam Vihar",
			"Lat": 28.498965, 
			"Lon": 77.236120,
			"Desc": "No desec",
			"Radius": 200
			},
			{
			"ID":178,
			"PlaceName": "Gali No 5, Sangam Vihar",
			"Lat": 28.4885319,
			"Lon": 77.228155,
			"Desc": "No desec",
			"Radius": 200
			},
			{

			"ID":179,
            "PlaceName": "Gali No 7, Sangam Vihar",
            "Lat": 28.4959479,
            "Lon": 77.2325708,
            "Desc": "No desec",
            "Radius": 200
			},
			{
			"ID":180,
			"PlaceName": "Deoli Extension",
			"Lat": 28.5024753,
			"Lon": 77.2258723,
			"Desc": "No desec",
			"Radius": 200
			},
			{
			"ID":181,
			"PlaceName": "Shahajahanabad Apartments",
			"Lat": 28.5942377,
			"Lon": 77.0509879,
			"Desc": "No desec",
			"Radius": 200
			},
			{
			"ID":182,
			"PlaceName": "Dhinpur Village",
			"Lat": 28.5911169, 
			"Lon": 76.9935659, 
			"Desc": "No desec",
			"Radius": 200
			},
			{
			"ID":183,
			"PlaceName": "Gali No.5, Bengali Gali",
			"Lat": 28.5961583,
			"Lon": 77.0828393,
			"Desc": "No desec",
			"Radius": 200
			},
			{
			"ID":184,
			"PlaceName": "Gali No.5A, Bengali Gali",
			"Lat": 28.5967404,
			"Lon": 77.079595,
			"Desc": "No desec",
			"Radius": 200
			},
			{
			"ID":185,
			"PlaceName": "Markaz Masjid",
			"Lat": 28.5917967, 
			"Lon": 77.2411838,
			"Desc": "No desec",
			"Radius": 200
			},
			{
			"ID":186,
			"PlaceName": "Nizamuddin Basti",
			"Lat": 28.5917301,
			"Lon": 77.2384679,
			"Desc": "No desec",
			"Radius": 200
			},
			{
			"ID":187,
			"PlaceName": "Nizamuddin West",
			"Lat": 28.5893984,
			"Lon": 77.2395382,
			"Desc": "No desec",
			"Radius": 200
			},
			{
			"ID":188,
			"PlaceName": "Zakir Nagar",
			"Lat": 28.5686196,
			"Lon": 77.2745801,
			"Desc": "No desec",
			"Radius": 200
			},
			{
			"ID":189,
			"PlaceName": "Khadda Colony",
			"Lat": 28.5114487,
			"Lon": 77.3268683,
			"Desc": "No desec",
			"Radius": 200
			},
			{
			"ID":190,
			"PlaceName": "Madanpur Khadar",
			"Lat": 28.5313845,
			"Lon": 77.2984465,
			"Desc": "No desec",
			"Radius": 200
			},
			{
			"ID":191,
			"PlaceName": "H Block, Abu Fazal Enclave",
			"Lat": 28.5528564,
			"Lon": 77.2922803,
			"Desc": "No desec",
			"Radius": 200
			},
			{
			"ID":192,
			"PlaceName": "E Block, Abu Fazal Enclave",
			"Lat": 28.5570394,
			"Lon": 77.292718,
			"Desc": "No desec",
			"Radius": 200
			},
			{
			"ID":193,
			"PlaceName": "East of Kailash",
			"Lat": 28.5573177,
			"Lon": 77.2333571,
			"Desc": "No desec",
			"Radius": 200
			},
			{
			"ID":194,
			"PlaceName": "B Block, Jhangiripuri",
			"Lat": 28.727389,
			"Lon": 77.1683097,
			"Desc": "No desec",
			"Radius": 200
			},
			{
			"ID":195,
			"PlaceName": "C Block, Jhangiripuri",
			"Lat": 28.7297885,
			"Lon": 77.1699123,
			"Desc": "No desec",
			"Radius": 200
			},
			{
			"ID":196,
			"PlaceName": "Kalyanpuri",
			"Lat": 28.6178157,
			"Lon": 77.3050336,
			"Desc": "No desec",
			"Radius": 200
			},
			{
			"ID":197,
			"PlaceName": "Vasundhara Enclave",
			"Lat": 28.6017248,
			"Lon": 77.3090522,
			"Desc": "No desec",
			"Radius": 200
			},
			{
			"ID":198,
			"PlaceName": "Khichripur",
			"Lat": 28.6209605,
			"Lon": 77.306214,
			"Desc": "No desec",
			"Radius": 200
			},
			{
			"ID":199,
			"PlaceName": "Pandav Nagar",
			"Lat": 28.6104393,
			"Lon": 77.2533472,
			"Desc": "No desec",
			"Radius": 200
			},
			{
			"ID":200,
			"PlaceName": "Vardhaman Apartments",
			"Lat": 28.5970524,
			"Lon": 77.293321,
			"Desc": "No desec",
			"Radius": 200
			},
			{
			"ID":201,
			"PlaceName": "Mayurdhwaj Apartments",
			"Lat": 28.6693171,
			"Lon": 77.2877045,
			"Desc": "No desec",
			"Radius": 200
			},
			{
			"ID":202,
			"PlaceName": "Gali No 4, Krishan Kunj Extension",
			"Lat": 28.6390248,
			"Lon": 77.2734707,
			"Desc": "No desec",
			"Radius": 200
			},
			{
			"ID":203,
			"PlaceName": "Gali No 5, West Vinod Nagar",
			"Lat": 28.6232577,
			"Lon": 77.2921321,
			"Desc": "No desec",
			"Radius": 200
			},
			{
			"ID":204,
			"PlaceName": "GTB Enclave",
			"Lat": 28.6849456,
			"Lon": 77.2997402,
			"Desc": "No desec",
			"Radius": 200
			},
			{
			"ID":205,
			"PlaceName": "Dilshad Garden",
			"Lat": 28.6872234,
			"Lon": 77.2983008,
			"Desc": "No desec",
			"Radius": 200
			},
			{
			"ID":206,
			"PlaceName": "Seemapuri",
			"Lat": 28.6893444,
			"Lon": 77.3237241,
			"Desc": "No desec",
			"Radius": 200
			},
			{
			"ID":207,
			"PlaceName": "Jhilmil Colony",
			"Lat": 28.6711322,
			"Lon": 77.3043172,
			"Desc": "No desec",
			"Radius": 200
			},
			{
			"ID":208,
			"PlaceName": "Shashtri Market",
			"Lat": 28.6713799,
			"Lon": 77.1729835,
			"Desc": "No desec",
			"Radius": 200
			},
			{
			"ID":209,
			"PlaceName": "Bengali Market",
			"Lat": 28.6290315,
			"Lon": 77.2308343,
			"Desc": "No desec",
			"Radius": 200
			},
			{
			"ID":210,
			"PlaceName": "Sadar Bazaar",
			"Lat": 28.6549894,
			"Lon": 77.202268,
			"Desc": "No desec",
			"Radius": 200
			},
			{
			"ID":211,
			"PlaceName": "Chandni Mahal",
			"Lat": 28.6428224,
			"Lon": 77.2357224,
			"Desc": "No desec",
			"Radius": 200
			},
			{
			"ID":212,
			"PlaceName": "Nabi Karim",
			"Lat": 28.651919,
			"Lon": 77.2093697,
			"Desc": "No desec",
			"Radius": 200
			},
			{
			"ID":213,
			"PlaceName": "Capital Greens",
			"Lat": 28.6658896,
			"Lon": 77.1489191,
			"Desc": "No desec",
			"Radius": 200
			},
			{
			"ID":214,
			"PlaceName": "Paschim Vihar",
			"Lat": 28.6658896,
			"Lon": 77.1489191,
			"Desc": "No desec",
			"Radius": 200
			},
			{
			"ID":215,
			"PlaceName": "Mansarover Garden",
			"Lat": 28.6379064,
			"Lon": 77.0931437,
			"Desc": "No desec",
			"Radius": 200
			},
			{
			"ID":216,
			"PlaceName": "Ashok Nagar",
			"Lat": 28.6379064,
			"Lon": 77.0931437,
			"Desc": "No desec",
			"Radius": 200
			},
			{
			"ID":217,
			"PlaceName": "Game Village",
			"Lat": 26.109584, 
			"Lon": 91.788147,
			"Desc": "No desec",
			"Radius": 200
			},
			{
			"ID":218,
			"PlaceName": "CDA quarter, Satgaon",
			"Lat": 26.161946, 
			"Lon": 91.835005,
			"Desc": "No desec",
			"Radius": 100
			},
			{
			"ID":219,
			"PlaceName": "Subham Buildwell, Zoo Road",
			"Lat": 26.161296, 
			"Lon": 91.781065,
			"Desc": "No desec",
			"Radius": 100
			},
			{
			"ID":220,
			"PlaceName": "Indrapur, Bhangagarh",
			"Lat": 26.159873, 
			"Lon": 91.767860,
			"Desc": "No desec",
			"Radius": 200
			},
			{
			"ID":221,
			"PlaceName": "Namghar Path, Hengerabari",
			"Lat": 26.147338, 
			"Lon": 91.799101,
			"Desc": "No desec",
			"Radius": 200
			},
			{
			"ID":222,
			"PlaceName": "Regent Paradise, Ghoramora",
			"Lat": 26.121275, 
			"Lon": 91.780418,
			"Desc": "No desec",
			"Radius": 100
			},
			{
			"ID":223,
			"PlaceName": "South Sarania, near Isckon temple",
			"Lat": 26.176730, 
			"Lon": 91.758977,
			"Desc": "No desec",
			"Radius": 100
			},
			{
			"ID":224,
			"PlaceName": "Ayurvedic Research Centre, Borsajai",
			"Lat": 26.116135, 
			"Lon": 91.780379,
			"Desc": "No desec",
			"Radius": 100
			},
			{
			"ID":225,
			"PlaceName": "Near Lakhi Mandir, Bongaon",
			"Lat": 26.119786, 
			"Lon": 91.798409,
			"Desc": "No desec",
			"Radius": 100
			},
			{
			"ID":226,
			"PlaceName": "Sankarnagar, Adagudam",
			"Lat": 26.136030, 
			"Lon": 91.736320,
			"Desc": "No desec",
			"Radius": 100
			},
			{
			"ID":227,
			"PlaceName": "Mahalleshwaram",
			"Lat": 13.0076967,
			"Lon": 77.5498078,
			"Desc": "No desec",
			"Radius": 200
			},
			{
			"ID":228,
			"PlaceName": "Mangammanapalya",
			"Lat": 12.9034479,
			"Lon": 77.6298732,
			"Desc": "No desec",
			"Radius": 200
			},
			{
			"ID":229,
			"PlaceName": "Jnanbharthinagar",
			"Lat": 12.9415106,
			"Lon": 77.4884019,
			"Desc": "No desec",
			"Radius": 200
			},
			{
			"ID":230,
			"PlaceName": "Jagjeevan Ram Nagar",
			"Lat": 12.9402326,
			"Lon": 77.5422794,
			"Desc": "No desec",
			"Radius": 200
			},
			{
			"ID":231,
			"PlaceName": "Lakkasandra",
			"Lat": 12.7936328,
			"Lon": 77.3226808,
			"Desc": "No desec",
			"Radius": 200
			},
			{
			"ID":232,
			"PlaceName": "Thanisandra",
			"Lat": 13.0582029,
			"Lon": 77.6072258,
			"Desc": "No desec",
			"Radius": 200
			},
			{
			"ID":233,
			"PlaceName": "Marappanapalya",
			"Lat": 13.1007439,
			"Lon": 77.1362456,
			"Desc": "No desec",
			"Radius": 200
			},
			{
			"ID":234,
			"PlaceName": "Hagadur",
			"Lat": 12.4159944,
			"Lon": 77.2195903,
			"Desc": "No desec",
			"Radius": 200
			},
			{
			"ID":235,
			"PlaceName": "Varthur",
			"Lat": 12.9446224,
			"Lon": 77.7236188,
			"Desc": "No desec",
			"Radius": 200
			},
			{
			"ID":236,
			"PlaceName": "Ramamurthy Nagar",
			"Lat": 13.0156785,
			"Lon": 77.6685706,
			"Desc": "No desec",
			"Radius": 200
			},
			{
			"ID":237,
			"PlaceName": "Agrahara Dasarahalli",
			"Lat": 13.0156571,
			"Lon": 77.6598157,
			"Desc": "No desec",
			"Radius": 200
			},
			{
			"ID":238,
			"PlaceName": "Siddapura",
			"Lat": 13.1318086,
			"Lon": 77.8517682,
			"Desc": "No desec",
			"Radius": 200
			},
			{
			"ID":239,
			"PlaceName": "Hosahalli",
			"Lat": 13.1499659,
			"Lon": 77.6378357,
			"Desc": "No desec",
			"Radius": 200
			},
			{
			"ID":240,
			"PlaceName": "Bommanahalli",
			"Lat": 12.9006234,
			"Lon": 77.6125546,
			"Desc": "No desec",
			"Radius": 200
			},
			{
			"ID":241,
			"PlaceName": "Agaram",
			"Lat": 12.9006234,
			"Lon": 77.6125546,
			"Desc": "No desec",
			"Radius": 200
			},
			{
			"ID":242,
			"PlaceName": "Kadugodi",
			"Lat": 12.9926713,
			"Lon": 77.7532247,
			"Desc": "No desec",
			"Radius": 200
			},
			{
			"ID":243,
			"PlaceName": "Kempegowda",
			"Lat": 12.9775865,
			"Lon": 77.5675552,
			"Desc": "No desec",
			"Radius": 200
			},
			{
			"ID":244,
			"PlaceName": "Subash Nagar",
			"Lat": 12.9775865,
			"Lon": 77.5675552,
			"Desc": "No desec",
			"Radius": 200
			},
			{
			"ID":245,
			"PlaceName": "Subramanya Nagar",
			"Lat": 13.0069214,
			"Lon": 77.5532371,
			"Desc": "No desec",
			"Radius": 200
			},
			{
			"ID":246,
			"PlaceName": "Rayapuram",
			"Lat": 12.9659235,
			"Lon": 77.5483306,
			"Desc": "No desec",
			"Radius": 200
			},
			{
			"ID":247,
			"PlaceName": "Azadnagar",
			"Lat": 12.9560999,
			"Lon": 77.5494616,
			"Desc": "No desec",
			"Radius": 200
			},
			{
			"ID":248,
			"PlaceName": "Nayandahalli",
			"Lat": 12.943669,
			"Lon": 77.5079599,
			"Desc": "No desec",
			"Radius": 200
			},
			{
			"ID":249,
			"PlaceName": "Hoodi",
			"Lat": 12.943669,
			"Lon": 77.5079599,
			"Desc": "No desec",
			"Radius": 200
			},
			{
			"ID":250,
			"PlaceName": "Kottigepalya",
			"Lat": 12.9854729,
			"Lon": 77.5103793,
			"Desc": "No desec",
			"Radius": 200
			},
			{
			"ID":251,
			"PlaceName": "Horamavu",
			"Lat": 13.0320944,
			"Lon": 77.6447587,
			"Desc": "No desec",
			"Radius": 200
			},
			{
			"ID":252,
			"PlaceName": "Marathahalli",
			"Lat": 12.957997,
			"Lon": 77.6750114,
			"Desc": "No desec",
			"Radius": 200
			},
			{
			"ID":253,
			"PlaceName": "Puttenahalli",
			"Lat": 13.1973549,
			"Lon": 77.4196426,
			"Desc": "No desec",
			"Radius": 200
			},
			{
			"ID":254,
			"PlaceName": "Yelahanka",
			"Lat": 13.1183531,
			"Lon": 77.5815544,
			"Desc": "No desec",
			"Radius": 200
			},
			{
			"ID":255,
			"PlaceName": "Arakare",
			"Lat": 13.1183113,
			"Lon": 77.5815545,
			"Desc": "No desec",
			"Radius": 200
			},
			{
			"ID":256,
			"PlaceName": "Doddabombassandra",
			"Lat": 13.1183531,
			"Lon": 77.5815544,
			"Desc": "No desec",
			"Radius": 200
			},
			{
			"ID":257,
			"PlaceName": "Domlur",
			"Lat": 12.9629794,
			"Lon": 77.6268656,
			"Desc": "No desec",
			"Radius": 200
			},
			{
			"ID":258,
			"PlaceName": "HSR Layout",
			"Lat": 12.9102561,
			"Lon": 77.6108031,
			"Desc": "No desec",
			"Radius": 200
			},
			{
			"ID":259,
			"PlaceName": "Jayamahal",
			"Lat": 13.0044804,
			"Lon": 77.5842012,
			"Desc": "No desec",
			"Radius": 200
			},
			{
			"ID":260,
			"PlaceName": "Visvesvarapuram",
			"Lat": 12.9544509,
			"Lon": 77.5721133,
			"Desc": "No desec",
			"Radius": 200
			},
			{
			"ID":261,
			"PlaceName": "Singasandra",
			"Lat": 12.8803173,
			"Lon": 77.6382401,
			"Desc": "No desec",
			"Radius": 200
			},
			{
			"ID":262,
			"PlaceName": "Bellanduru",
			"Lat": 12.9323594,
			"Lon": 77.6573238,
			"Desc": "No desec",
			"Radius": 200
			},
			{
			"ID":263,
			"PlaceName": "Padarayanapura",
			"Lat": 12.9628266,
			"Lon": 77.5433542,
			"Desc": "No desec",
			"Radius": 200
			},
			{
			"ID":264,
			"PlaceName": "Nagavara",
			"Lat": 13.0396595,
			"Lon": 77.5960594,
			"Desc": "No desec",
			"Radius": 200
			},
			{
			"ID":265,
			"PlaceName": "S K Garden",
			"Lat": 13.0045534,
			"Lon": 77.6042693,
			"Desc": "No desec",
			"Radius": 200
			},
			{
			"ID":266,
			"PlaceName": "Chokkasandra",
			"Lat": 13.0386635,
			"Lon": 77.5135028,
			"Desc": "No desec",
			"Radius": 200
			},
			{
			"ID":267,
			"PlaceName": "Yelachennahali",
			"Lat": 12.900428,
			"Lon": 77.5661276,
			"Desc": "No desec",
			"Radius": 200
			},
			{
			"ID":268,
			"PlaceName": "Bagalgunte",
			"Lat": 13.0543133,
			"Lon": 77.4895947,
			"Desc": "No desec",
			"Radius": 200
			},
			{
			"ID":269,
			"PlaceName": "Chalradipalya",
			"Lat": 12.9559326,
			"Lon": 77.5638341,
			"Desc": "No desec",
			"Radius": 200
			},
			{
			"ID":270,
			"PlaceName": "HBR Layout",
			"Lat": 13.0324778,
			"Lon": 77.6141984,
			"Desc": "No desec",
			"Radius": 200
			},
			{
			"ID":271,
			"PlaceName": "Gali Anjaneya Temple",
			"Lat": 12.9716507,
			"Lon": 77.5215731,
			"Desc": "No desec",
			"Radius": 200
			},
			{
			"ID":272,
			"PlaceName": "Hampi Nagar",
			"Lat": 12.961359,
			"Lon": 77.5286204,
			"Desc": "No desec",
			"Radius": 200
			},
			{
			"ID":273,
			"PlaceName": "Muneshwara Nagar",
			"Lat": 12.8951294,
			"Lon": 77.6331947,
			"Desc": "No desec",
			"Radius": 200
			},
			{
			"ID":274,
			"PlaceName": "Dharamaraya Swami Nagara",
			"Lat": 12.9659885,
			"Lon": 77.5801651,
			"Desc": "No desec",
			"Radius": 200
			},
			{
			"ID":275,
			"PlaceName": "Sudamanagar",
			"Lat": 12.9573184,
			"Lon": 77.5785122,
			"Desc": "No desec",
			"Radius": 200
			},
			{
			"ID":276,
			"PlaceName": "Gandhi Nagar",
			"Lat": 12.9804049,
			"Lon": 77.5703082,
			"Desc": "No desec",
			"Radius": 200
			},
			{
            "ID": 277,
            "PlaceName": "Mon Village",
            "Lat": 26.7331,
            "Lon": 95.030502,
            "Desc": "No desec",
            "Radius": 200
        },
        {
            "ID": 278,
            "PlaceName": "Kohima",
            "Lat": 25.6751,
            "Lon": 94.1086,
            "Desc": "No desec",
            "Radius": 200
        },
        {
            "ID": 279,
            "PlaceName": "Dimapur",
            "Lat": 25.9091,
            "Lon": 93.7266,
            "Desc": "No desec",
            "Radius": 200
        },
		{
            "ID": 280,
            "PlaceName": "Port Blair",
            "Lat": 11.623377,
            "Lon": 92.726486,
            "Desc": "No desec",
            "Radius": 200
        },
        {
            "ID": 281,
            "PlaceName": "South Andamans",
            "Lat": 11.7401,
            "Lon": 92.6586,
            "Desc": "No desec",
            "Radius": 200
        },
		{
            "ID": 282,
            "PlaceName": "Bandipora",
            "Lat": 34.5052,
            "Lon": 74.6869,
            "Desc": "No desec",
            "Radius": 200
        },
        {
            "ID": 283,
            "PlaceName": "Shopian",
            "Lat": 33.7170,
            "Lon": 74.8361,
            "Desc": "No desec",
            "Radius": 200
        },
        {
            "ID": 284,
            "PlaceName": "Anantnag",
            "Lat": 33.7311,
            "Lon":  75.1487,
            "Desc": "No desec",
            "Radius": 200
        },
        {
            "ID": 285,
            "PlaceName": "Srinagar",
            "Lat": 34.0837,
            "Lon": 74.7973,
            "Desc": "No desec",
            "Radius": 200
        },
        {
            "ID": 286,
            "PlaceName": "Baramulla",
            "Lat": 34.1595,
            "Lon": 74.3587,
            "Desc": "No desec",
            "Radius": 200
        },
        {
            "ID": 287,
            "PlaceName": "Kupwara",
            "Lat": 34.5262,
            "Lon": 74.2546,
            "Desc": "No desec",
            "Radius": 200
        },
        {
            "ID": 288,
            "PlaceName": "Ganderbal",
            "Lat": 34.2165,
            "Lon": 74.7719,
            "Desc": "No desec",
            "Radius": 200
        },
        {
            "ID": 289,
            "PlaceName": "Jammu",
            "Lat": 32.7266,
            "Lon": 74.8570,
            "Desc": "No desec",
            "Radius": 200
        },
        {
            "ID": 290,
            "PlaceName": "Ganderbal",
            "Lat": 34.2165,
            "Lon": 74.7719,
            "Desc": "No desec",
            "Radius": 200
        },
        {
            "ID": 291,
            "PlaceName": "Ganderbal",
            "Lat": 34.2165,
            "Lon": 74.7719,
            "Desc": "No desec",
            "Radius": 200
        },
        {
            "ID": 292,
            "PlaceName": "Ganderbal",
            "Lat": 34.2165,
            "Lon": 74.7719,
            "Desc": "No desec",
            "Radius": 200
        },
		{
			"ID":293,
			"PlaceName": "RTC Colony",
			"Lat": 16.2991339,
			"Lon": 80.4627279,
			"Desc": "No desec",
			"Radius": 200
			},
			{
			"ID":294,
			"PlaceName": "Israelpeta",
			"Lat": 16.3021835,
			"Lon": 80.4303767,
			"Desc": "No desec",
			"Radius": 200
			},
			{
			"ID":295,
			"PlaceName": "Kummari Bazaar",
			"Lat": 16.2945949,
			"Lon": 80.4569994,
			"Desc": "No desec",
			"Radius": 200
			},
			{
			"ID":296,
			"PlaceName": "Anandapeta",
			"Lat": 16.2844538,
			"Lon": 80.4532294,
			"Desc": "No desec",
			"Radius": 200
			},
			{
			"ID":297,
			"PlaceName": "Yanadi Colony",
			"Lat": 16.2279091,
			"Lon": 80.6374985,
			"Desc": "No desec",
			"Radius": 200
			},
			{
			"ID":298,
			"PlaceName": "Butchaiah Thota",
			"Lat": 16.3062727,
			"Lon": 80.4491301,
			"Desc": "No desec",
			"Radius": 200
			},
			{
			"ID":299,
			"PlaceName": "Ramireddy Thota",
			"Lat": 16.3012505,
			"Lon": 80.4487697,
			"Desc": "No desec",
			"Radius": 200
			},
			{
			"ID":300,
			"PlaceName": "Gunturuvari Thota",
			"Lat": 18.9355365,
			"Lon": 72.8173892,
			"Desc": "No desec",
			"Radius": 200
			},
			{
			"ID":301,
			"PlaceName": "Sangadigunta",
			"Lat": 16.2851376,
			"Lon": 80.4448906,
			"Desc": "No desec",
			"Radius": 200
			},
			{
			"ID":302,
			"PlaceName": "Ahmednagar",
			"Lat": 16.291811,
			"Lon": 80.4491784,
			"Desc": "No desec",
			"Radius": 200
			},
			{
			"ID":303,
			"PlaceName": "China Bazaar",
			"Lat": 16.3081687,
			"Lon": 80.4170298,
			"Desc": "No desec",
			"Radius": 200
			},
			{
			"ID":304,
			"PlaceName": "Bhavaji Nagar",
			"Lat": 16.2746432,
			"Lon": 80.4535073,
			"Desc": "No desec",
			"Radius": 200
			},
			{
			"ID":305,
			"PlaceName": "Kankaragunta",
			"Lat": 16.3007119,
			"Lon": 80.4264706,
			"Desc": "No desec",
			"Radius": 200
			},
			{
			"ID":306,
			"PlaceName": "Srinivasarao Thota",
			"Lat": 16.2889953,
			"Lon": 80.429103,
			"Desc": "No desec",
			"Radius": 200
			},
			{
			"ID":307,
			"PlaceName": "Sai Nagar",
			"Lat": 16.2889953,
			"Lon": 80.429103,
			"Desc": "No desec",
			"Radius": 200
			},
			{
			"ID":308,
			"PlaceName": "Reddypalem",
			"Lat": 16.3004102,
			"Lon": 79.9248504,
			"Desc": "No desec",
			"Radius": 200
			},
			{
			"ID":309,
			"PlaceName": "Tarakarama Nagar",
			"Lat": 16.3311719,
			"Lon": 80.411938,
			"Desc": "No desec",
			"Radius": 200
			},
			{
			"ID":310,
			"PlaceName": "Tadepalli",
			"Lat": 16.4775907,
			"Lon": 80.5699855,
			"Desc": "No desec",
			"Radius": 200
			},
			{
			"ID":311,
			"PlaceName": "Dachepalle",
			"Lat": 16.5937596,
			"Lon": 79.7136852,
			"Desc": "No desec",
			"Radius": 200
			},
			{
			"ID":312,
			"PlaceName": "Koppunur",
			"Lat": 16.4869131,
			"Lon": 79.3263316,
			"Desc": "No desec",
			"Radius": 200
			},
			{
			"ID":313,
			"PlaceName": "Macherla MPL",
			"Lat": 16.4722024,
			"Lon": 79.4298917,
			"Desc": "No desec",
			"Radius": 200
			},
			{
			"ID":314,
			"PlaceName": "Mangalgiri MPL",
			"Lat": 16.4239357,
			"Lon": 80.5811159,
			"Desc": "No desec",
			"Radius": 200
			},
			{
			"ID":315,
			"PlaceName": "Piduguralla Railway Station Road",
			"Lat": 16.4782629,
			"Lon": 79.8745805,
			"Desc": "No desec",
			"Radius": 200
			},
			{
			"ID":316,
			"PlaceName": "Tenali MPL",
			"Lat": 16.2383563,
			"Lon": 80.6433123,
			"Desc": "No desec",
			"Radius": 200
			},
			{
			"ID":317,
			"PlaceName": "Kondramutla",
			"Lat": 16.1153118,
			"Lon": 79.7489913,
			"Desc": "No desec",
			"Radius": 200
			},
			{
			"ID":318,
			"PlaceName": "Chagallu",
			"Lat": 16.371273,
			"Lon": 80.023486,
			"Desc": "No desec",
			"Radius": 200
			},
			{
			"ID":319,
			"PlaceName": "Uppalapadu",
			"Lat": 16.371273,
			"Lon": 80.023486,
			"Desc": "No desec",
			"Radius": 200
			},
			{
			"ID":320,
			"PlaceName": "Ponnur MPL",
			"Lat": 16.0793579,
			"Lon": 80.5470818,
			"Desc": "No desec",
			"Radius": 200
			},
			{
			"ID":321,
			"PlaceName": "Chilakaluripeta MPL",
			"Lat": 16.0950252,
			"Lon": 80.1644148,
			"Desc": "No desec",
			"Radius": 200
			},
			{
			"ID":322,
			"PlaceName": "Sri Ram Nagar",
			"Lat": 18.9355365,
			"Lon": 72.8173892,
			"Desc": "No desec",
			"Radius": 200
			},
			{
			"ID":323,
			"PlaceName": "Dhulipalla",
			"Lat": 16.4138154,
			"Lon": 80.0819742,
			"Desc": "No desec",
			"Radius": 200
			},
			{
			"ID":324,
			"PlaceName": "Vengalayapalem",
			"Lat": 16.2877078,
			"Lon": 80.3667765,
			"Desc": "No desec",
			"Radius": 200
			},
			{
			"ID":325,
			"PlaceName": "Narasaropeta Rural",
			"Lat": 16.1788598,
			"Lon": 80.0839752,
			"Desc": "No desec",
			"Radius": 200
			},
			{
			"ID":326,
			"PlaceName": "Narasaropeta Urban",
			"Lat": 16.2331148,
			"Lon": 80.0154,
			"Desc": "No desec",
			"Radius": 200
			},
			{
			"ID":327,
			"PlaceName": "Eluru Road",
			"Lat": 16.5182755,
			"Lon": 80.6462504,
			"Desc": "No desec",
			"Radius": 200
			},
			{
			"ID":328,
			"PlaceName": "Gundala Hill",
			"Lat": 16.5061743,
			"Lon": 80.6458266,
			"Desc": "No desec",
			"Radius": 200
			},
			{
			"ID":329,
			"PlaceName": "BRTS Road",
			"Lat": 16.5222447,
			"Lon": 80.6411518,
			"Desc": "No desec",
			"Radius": 200
			},
			{
			"ID":330,
			"PlaceName": "Mangor Hill, Sasmolem",
			"Lat": 15.391183,
			"Lon": 73.815351,
			"Desc": "No desec",
			"Radius": 200
			},
			{
			"ID":331,
			"PlaceName": "Ghodemal, Morlem, Satari",
			"Lat": 15.584546,
			"Lon": 74.057702,
			"Desc": "No desec",
			"Radius": 200
			}
			
			]
		
}
