{
	"redzone": [
			{
			"ID":44,
			"PlaceName": "Churchgate",
			"Lat": 18.9355365,
			"Lon": 72.8173892,
			"Desc": "No desec",
			"Radius": 200
			},
			{
			"ID":45,
			"PlaceName": "Colaba",
			"Lat": 18.9095245,
			"Lon": 72.801681,
			"Desc": "No desec",
			"Radius": 200
			},
			{
			"ID":46,
			"PlaceName": "Musjid Bandar",
			"Lat": 18.9510004,
			"Lon": 72.8335021,
			"Desc": "No desec",
			"Radius": 200
			},
			{

			"ID":47,
            "PlaceName": "Mohammed Ali Road",
            "Lat": 18.9566733,
            "Lon": 72.8305737,
            "Desc": "No desec",
            "Radius": 200
			},
			{
			"ID":48,
			"PlaceName": "Dongri",
			"Lat": 18.9598529,
			"Lon": 72.8335356,
			"Desc": "No desec",
			"Radius": 200
			},
			{
			"ID":49,
			"PlaceName": "Bhendi Bazaar",
			"Lat": 18.9563871,
			"Lon": 72.8290585,
			"Desc": "No desec",
			"Radius": 200
			},
			{
			"ID":50,
			"PlaceName": "Pydhonie",
			"Lat": 18.9541154,
			"Lon": 72.8330828,
			"Desc": "No desec",
			"Radius": 200
			},
			{
			"ID":51,
			"PlaceName": "Bhuleshwar",
			"Lat": 18.9549234,
			"Lon": 72.8252296,
			"Desc": "No desec",
			"Radius": 200
			},
			{
			"ID":52,
			"PlaceName": "Grant Road",
			"Lat": 18.9627716,
			"Lon": 72.8096433,
			"Desc": "No desec",
			"Radius": 200
			},
			{
			"ID":53,
			"PlaceName": "Walkeshwar, Malabar Hills",
			"Lat": 18.9515713,
			"Lon": 72.8004873,
			"Desc": "No desec",
			"Radius": 200
			},
			{
			"ID":54,
			"PlaceName": "Breach Candy",
			"Lat": 18.9716329,
			"Lon": 72.8019886,
			"Desc": "No desec",
			"Radius": 200
			},
			{
			"ID":55,
			"PlaceName": "Haji Ali",
			"Lat": 18.9783765,
			"Lon": 72.8076142,
			"Desc": "No desec",
			"Radius": 200
			},
			{
			"ID":56,
			"PlaceName": "Byculla",
			"Lat": 18.9770717,
			"Lon": 72.8249743,
			"Desc": "No desec",
			"Radius": 200
			},
			{
			"ID":57,
			"PlaceName": "Madanpura",
			"Lat": 18.9700517,
			"Lon": 72.8240481,
			"Desc": "No desec",
			"Radius": 200
			},
			{
			"ID":58,
			"PlaceName": "Agripada",
			"Lat": 18.9760659,
			"Lon": 72.822088,
			"Desc": "No desec",
			"Radius": 200
			},
			{
			"ID":59,
			"PlaceName": "Nagpada",
			"Lat": 18.9645084,
			"Lon": 72.8278552,
			"Desc": "No desec",
			"Radius": 200
			},
			{
			"ID":60,
			"PlaceName": "Dockyard Road",
			"Lat": 18.9674478,
			"Lon": 72.8423728,
			"Desc": "No desec",
			"Radius": 200
			},
			{
			"ID":61,
			"PlaceName": "Reay Road",
			"Lat": 18.9774518,
			"Lon": 72.8419706,
			"Desc": "No desec",
			"Radius": 200
			},
			{
			"ID":62,
			"PlaceName": "Chinchpokli",
			"Lat": 18.9828378,
			"Lon": 72.8299296,
			"Desc": "No desec",
			"Radius": 200
			},
			{
			"ID":63,
			"PlaceName": "Matunga",
			"Lat": 19.029268,
			"Lon": 72.8451586,
			"Desc": "No desec",
			"Radius": 200
			},
			{
			"ID":64,
			"PlaceName": "Sion",
			"Lat": 19.0425889,
			"Lon": 72.850797,
			"Desc": "No desec",
			"Radius": 200
			},
			{
			"ID":65,
			"PlaceName": "Wadala",
			"Lat": 19.0139242,
			"Lon": 72.8436694,
			"Desc": "No desec",
			"Radius": 200
			},
			{
			"ID":66,
			"PlaceName": "Hindu Colony, Dadar",
			"Lat": 19.0204389,
			"Lon": 72.8438099,
			"Desc": "No desec",
			"Radius": 200
			},
			{
			"ID":67,
			"PlaceName": "Parel",
			"Lat": 18.9982462,
			"Lon": 72.832826,
			"Desc": "No desec",
			"Radius": 200
			},
			{
			"ID":68,
			"PlaceName": "Dharavi",
			"Lat": 19.0467544,
			"Lon": 72.8398769,
			"Desc": "No desec",
			"Radius": 200
			},
			{
			"ID":69,
			"PlaceName": "Mahim",
			"Lat": 19.0401163,
			"Lon": 72.8332402,
			"Desc": "No desec",
			"Radius": 200
			},
			{
			"ID":70,
			"PlaceName": "Dadar",
			"Lat": 19.0214606,
			"Lon": 72.8254507,
			"Desc": "No desec",
			"Radius": 200
			},
			{
			"ID":71,
			"PlaceName": "Worli",
			"Lat": 19.0039292,
			"Lon": 72.8037904,
			"Desc": "No desec",
			"Radius": 200
			},
			{
			"ID":72,
			"PlaceName": "Prabhadevi",
			"Lat": 19.0152491,
			"Lon": 72.8196879,
			"Desc": "No desec",
			"Radius": 200
			},
			{
			"ID":73,
			"PlaceName": "Bandra East",
			"Lat": 19.0611642,
			"Lon": 72.8389848,
			"Desc": "No desec",
			"Radius": 200
			},
			{
			"ID":74,
			"PlaceName": "Khar East",
			"Lat": 19.0712479,
			"Lon": 72.8389464,
			"Desc": "No desec",
			"Radius": 200
			},
			{
			"ID":75,
			"PlaceName": "Santacruz East",
			"Lat": 19.0779306,
			"Lon": 72.8410103,
			"Desc": "No desec",
			"Radius": 200
			},
			{
			"ID":76,
			"PlaceName": "Bandra West",
			"Lat": 19.0544782,
			"Lon": 72.8121447,
			"Desc": "No desec",
			"Radius": 200
			},
			{
			"ID":77,
			"PlaceName": "Khar West",
			"Lat": 19.0687793,
			"Lon": 72.8230148,
			"Desc": "No desec",
			"Radius": 200
			},
			{
			"ID":78,
			"PlaceName": "Santacruz West",
			"Lat": 19.0818115,
			"Lon": 72.8264993,
			"Desc": "No desec",
			"Radius": 200
			},
			{
			"ID":79,
			"PlaceName": "Andheri East",
			"Lat": 19.1147385,
			"Lon": 72.8334709,
			"Desc": "No desec",
			"Radius": 200
			},
			{
			"ID":80,
			"PlaceName": "Jogeshwari East",
			"Lat": 19.1331001,
			"Lon": 72.8434359,
			"Desc": "No desec",
			"Radius": 200
			},
			{
			"ID":81,
			"PlaceName": "Vile Parle East",
			"Lat": 19.0974241,
			"Lon": 72.8445433,
			"Desc": "No desec",
			"Radius": 200
			},
			{
			"ID":82,
			"PlaceName": "Andheri West",
			"Lat": 19.1386617,
			"Lon": 72.7903874,
			"Desc": "No desec",
			"Radius": 200
			},
			{
			"ID":83,
			"PlaceName": "Jogeshwari West",
			"Lat": 19.1416503,
			"Lon": 72.8319697,
			"Desc": "No desec",
			"Radius": 200
			},
			{
			"ID":84,
			"PlaceName": "Vile Parle West",
			"Lat": 19.1053384,
			"Lon": 72.8188572,
			"Desc": "No desec",
			"Radius": 200
			},
			{
			"ID":85,
			"PlaceName": "Sakinaka",
			"Lat": 19.0996368,
			"Lon": 72.8769037,
			"Desc": "No desec",
			"Radius": 200
			},
			{
			"ID":86,
			"PlaceName": "Chandivali",
			"Lat": 19.1130674,
			"Lon": 72.8843372,
			"Desc": "No desec",
			"Radius": 200
			},
			{
			"ID":87,
			"PlaceName": "Asalpha",
			"Lat": 19.0985059,
			"Lon": 72.8850437,
			"Desc": "No desec",
			"Radius": 200
			},
			{
			"ID":88,
			"PlaceName": "Kurla",
			"Lat": 19.07155,
			"Lon": 72.8664114,
			"Desc": "No desec",
			"Radius": 200
			},
			{
			"ID":89,
			"PlaceName": "Mankhurd",
			"Lat": 19.0494355,
			"Lon": 72.9177162,
			"Desc": "No desec",
			"Radius": 200
			},
			{
			"ID":90,
			"PlaceName": "Anushakti Nagar",
			"Lat": 19.0354758,
			"Lon": 72.9113136,
			"Desc": "No desec",
			"Radius": 200
			},
			{
			"ID":91,
			"PlaceName": "Deonar",
			"Lat": 19.0444297,
			"Lon": 72.9078458,
			"Desc": "No desec",
			"Radius": 200
			},
			{
			"ID":92,
			"PlaceName": "Cheetah Camp",
			"Lat": 19.0358801,
			"Lon": 72.9458199,
			"Desc": "No desec",
			"Radius": 200
			},
			{
			"ID":93,
			"PlaceName": "Shivaji Nagar",
			"Lat": 19.0654129,
			"Lon": 72.9144323,
			"Desc": "No desec",
			"Radius": 200
			},
			{
			"ID":94,
			"PlaceName": "Chembur",
			"Lat": 19.0471053,
			"Lon": 72.8661988,
			"Desc": "No desec",
			"Radius": 200
			},
			{
			"ID":95,
			"PlaceName": "Chedda Nagar",
			"Lat": 19.0640163,
			"Lon": 72.8987367,
			"Desc": "No desec",
			"Radius": 200
			},
			{
			"ID":96,
			"PlaceName": "Ghatkopar",
			"Lat": 19.0790227,
			"Lon": 72.8905026,
			"Desc": "No desec",
			"Radius": 200
			},
			{
			"ID":97,
			"PlaceName": "Vidyavihar",
			"Lat": 19.0790947,
			"Lon": 72.8881353,
			"Desc": "No desec",
			"Radius": 200
			},
			{
			"ID":98,
			"PlaceName": "Malad",
			"Lat": 19.1887532,
			"Lon": 72.7722645,
			"Desc": "No desec",
			"Radius": 200
			},
			{
			"ID":99,
			"PlaceName": "Manori",
			"Lat": 19.2078702,
			"Lon": 72.7779349,
			"Desc": "No desec",
			"Radius": 200
			},
			{
			"ID":100,
			"PlaceName": "Marve",
			"Lat": 19.1917411,
			"Lon": 72.7898627,
			"Desc": "No desec",
			"Radius": 200
			},
			{
			"ID":101,
			"PlaceName": "Aksa Gaon",
			"Lat": 19.1771808,
			"Lon": 72.7919147,
			"Desc": "No desec",
			"Radius": 200
			},
			{
			"ID":102,
			"PlaceName": "Goregaon",
			"Lat": 19.1527071,
			"Lon": 72.8436784,
			"Desc": "No desec",
			"Radius": 200
			},
			{
			"ID":103,
			"PlaceName": "Borivali",
			"Lat": 19.2317711,
			"Lon": 72.8106844,
			"Desc": "No desec",
			"Radius": 200
			},
			{
			"ID":104,
			"PlaceName": "Dahisar",
			"Lat": 19.4930592,
			"Lon": 72.8462804,
			"Desc": "No desec",
			"Radius": 200
			},
			{
			"ID":105,
			"PlaceName": "Kandivali",
			"Lat": 19.205877,
			"Lon": 72.8477623,
			"Desc": "No desec",
			"Radius": 200
			},
			{
			"ID":106,
			"PlaceName": "Bhandup",
			"Lat": 19.1508121,
			"Lon": 72.925135,
			"Desc": "No desec",
			"Radius": 200
			},
			{
			"ID":107,
			"PlaceName": "Powai",
			"Lat": 19.1250474,
			"Lon": 72.8875394,
			"Desc": "No desec",
			"Radius": 200
			},
			{
			"ID":108,
			"PlaceName": "Kanjur Marg",
			"Lat": 19.1283375,
			"Lon": 72.9258755,
			"Desc": "No desec",
			"Radius": 200
			},
			{
			"ID":109,
			"PlaceName": "Vikhroli",
			"Lat": 19.0895592,
			"Lon": 72.9042311,
			"Desc": "No desec",
			"Radius": 200
			},
			{
			"ID":110,
			"PlaceName": "Nahur",
			"Lat": 19.1562329,
			"Lon": 72.9389728,
			"Desc": "No desec",
			"Radius": 200
			},
			{
			"ID":111,
			"PlaceName": "Mulund",
			"Lat": 19.1720208,
			"Lon": 72.954162,
			"Desc": "No desec",
			"Radius": 200
			},
			{
			"ID":112,
			"PlaceName": "Mangalvar Peth, Juna Bazaar",
			"Lat": 18.5250194,
			"Lon": 73.8594087,
			"Desc": "No desec",
			"Radius": 200
			},
			{
			"ID":113,
			"PlaceName": "Parvati Darshan",
			"Lat": 18.4872002,
			"Lon": 73.8279708,
			"Desc": "No desec",
			"Radius": 200
			},
			{
			"ID":114,
			"PlaceName": "Kasba Peth",
			"Lat": 18.523609,
			"Lon": 73.8522882,
			"Desc": "No desec",
			"Radius": 200
			},
			{
			"ID":115,
			"PlaceName": "Pune Station",
			"Lat": 18.5285053,
			"Lon": 73.8722235,
			"Desc": "No desec",
			"Radius": 200
			},
			{
			"ID":116,
			"PlaceName": "Shiv Darshan",
			"Lat": 18.496328,
			"Lon": 73.8616559,
			"Desc": "No desec",
			"Radius": 200
			},
			{
			"ID":117,
			"PlaceName": "Gajanan Maharaj Temple Area",
			"Lat": 18.5228926,
			"Lon": 73.8443041,
			"Desc": "No desec",
			"Radius": 200
			},
			{
			"ID":118,
			"PlaceName": "Katraj",
			"Lat": 18.4442447,
			"Lon": 73.8451703,
			"Desc": "No desec",
			"Radius": 200
			},
			{
			"ID":119,
			"PlaceName": "Ambegaon Pathar",
			"Lat": 18.4584485,
			"Lon": 73.8375377,
			"Desc": "No desec",
			"Radius": 200
			},
			{
			"ID":120,
			"PlaceName": "Ambedkar Nagar",
			"Lat": 18.4837876,
			"Lon": 73.8640088,
			"Desc": "No desec",
			"Radius": 200
			},
			{
			"ID":121,
			"PlaceName": "Dias Plot",
			"Lat": 18.495955,
			"Lon": 73.8670253,
			"Desc": "No desec",
			"Radius": 200
			},
			{
			"ID":122,
			"PlaceName": "Meenatai Thakre Nagar",
			"Lat": 18.4965738,
			"Lon": 73.8214842,
			"Desc": "No desec",
			"Radius": 200
			},
			{
			"ID":123,
			"PlaceName": "Bibwewadi",
			"Lat": 18.4709061,
			"Lon": 73.8582237,
			"Desc": "No desec",
			"Radius": 200
			},
			{
			"ID":124,
			"PlaceName": "Panorama Society",
			"Lat": 18.6207528,
			"Lon": 73.87565,
			"Desc": "No desec",
			"Radius": 200
			},
			{
			"ID":125,
			"PlaceName": "Nagpur Chaul, Yerawada",
			"Lat": 18.5625044,
			"Lon": 73.8919544,
			"Desc": "No desec",
			"Radius": 200
			},
			{
			"ID":126,
			"PlaceName": "Yerawada",
			"Lat": 18.5595112,
			"Lon": 73.8650323,
			"Desc": "No desec",
			"Radius": 200
			},
			{
			"ID":127,
			"PlaceName": "Chaudhury Nagar",
			"Lat": 18.587856,
			"Lon": 73.8948613,
			"Desc": "No desec",
			"Radius": 200
			},
			{
			"ID":128,
			"PlaceName": "Hadapsar",
			"Lat": 18.4972508,
			"Lon": 73.9043993,
			"Desc": "No desec",
			"Radius": 200
			},
			{
			"ID":129,
			"PlaceName": "Kondhuwa Khurd",
			"Lat": 18.4677727,
			"Lon": 73.8760297,
			"Desc": "No desec",
			"Radius": 200
			},
			{
			"ID":130,
			"PlaceName": "Wanwadi",
			"Lat": 18.4929714,
			"Lon": 73.8918128,
			"Desc": "No desec",
			"Radius": 200
			},
			{
			"ID":131,
			"PlaceName": "Shivaji Nagar",
			"Lat": 18.5329442,
			"Lon": 73.8247899,
			"Desc": "No desec",
			"Radius": 200
			},
			{
			"ID":132,
			"PlaceName": "Wadgaon Sheri",
			"Lat": 18.5500037,
			"Lon": 73.9028834,
			"Desc": "No desec",
			"Radius": 200
			},
			{
			"ID":133,
			"PlaceName": "Dhayari",
			"Lat": 18.4439642,
			"Lon": 73.7918724,
			"Desc": "No desec",
			"Radius": 200
			},
			{
			"ID":134,
			"PlaceName": "Fursungi",
			"Lat": 18.4702569,
			"Lon": 73.9671022,
			"Desc": "No desec",
			"Radius": 200
			},
			{
			"ID":135,
			"PlaceName": "Kodhwa",
			"Lat": 18.4677727,
			"Lon": 73.8760297,
			"Desc": "No desec",
			"Radius": 200
			},
			{
			"ID":136,
			"PlaceName": "Dhankawadi",
			"Lat": 18.4644266,
			"Lon": 73.8344238,
			"Desc": "No desec",
			"Radius": 200
			},
			{
			"ID":137,
			"PlaceName": "Erandwane",
			"Lat": 18.5066563,
			"Lon": 73.8239077,
			"Desc": "No desec",
			"Radius": 200
			},
			{
			"ID":138,
			"PlaceName": "Kothrud",
			"Lat": 18.5073806,
			"Lon": 73.7871499,
			"Desc": "No desec",
			"Radius": 200
			},
			{
			"ID":139,
			"PlaceName": "Thane West",
			"Lat": 19.2378102,
			"Lon": 72.9309044,
			"Desc": "No desec",
			"Radius": 1000
			},
			{
			"ID":140,
			"PlaceName": "Brahman Society",
			"Lat": 19.1856618,
			"Lon": 72.9667148,
			"Desc": "No desec",
			"Radius": 200
			},
			{
			"ID":141,
			"PlaceName": "Diva",
			"Lat": 19.1855406,
			"Lon": 73.0207998,
			"Desc": "No desec",
			"Radius": 200
			},
			{
			"ID":142,
			"PlaceName": "Thane East",
			"Lat": 19.1771591,
			"Lon": 72.9667453,
			"Desc": "No desec",
			"Radius": 500
			},
			{
			"ID":143,
			"PlaceName": "Kalwa",
			"Lat": 19.2015462,
			"Lon": 72.9675914,
			"Desc": "No desec",
			"Radius": 200
			}
			]
		
}
